STARLINK-35648          
1 66482U 25262AC  25329.83335647 -.01601997  00000+0 -70104-2 0  9991
2 66482  42.9975 171.5478 0001596 271.5718   2.8170 15.86471126  2763
STARLINK-35654          
1 66483U 25262AD  25329.83335647 -.01620010  00000+0 -70962-2 0  9991
2 66483  42.9972 171.5410 0001645 271.2436   5.6107 15.86483442  2929
STARLINK-35371          
1 66484U 25262AE  25329.83335647 -.01637924  00000+0 -71847-2 0  9997
2 66484  42.9975 171.5346 0001734 269.5891   9.9160 15.86486960  2929
STARLINK-34774          
1 66485U 25263A   25329.83335647 -.01178868  00000+0 -40951-2 0  9998
2 66485  42.9982 226.5530 0001667 268.5640 271.2861 15.91054481  2916
STARLINK-34844          
1 66486U 25263B   25329.83335647 -.01188294  00000+0 -41295-2 0  9995
2 66486  42.9979 226.5408 0001679 261.5728 282.9609 15.91068660  2867
STARLINK-34733          
1 66487U 25263C   25329.33336806 -.01364307  53539-3 -38906-2 0  9994
2 66487  42.9984 229.6402 0001839 267.5512 291.5340 15.92407753  2833
STARLINK-35515          
1 66488U 25263D   25329.83335647 -.01191835  00000+0 -41289-2 0  9995
2 66488  42.9981 226.5269 0001589 261.7988 288.2475 15.91137895  2910
STARLINK-35696          
1 66489U 25263E   25329.83335647 -.01383518  54291-3 -42031-2 0  9998
2 66489  42.9980 226.5203 0001634 264.4512 288.1796 15.91193424  2917
STARLINK-35693          
1 66490U 25263F   25329.83335647 -.01390102  54787-3 -42139-2 0  9996
2 66490  42.9982 226.5124 0001745 262.7073 293.0211 15.91236332  2912
STARLINK-35663          
1 66491U 25263G   25329.83335647 -.01481474  61642-3 -44664-2 0  9993
2 66491  42.9981 226.5010 0001885 252.2280 308.0282 15.91356021  2918
STARLINK-35673          
1 66492U 25263H   25329.83335647 -.01455047  59651-3 -43814-2 0  9994
2 66492  42.9981 226.4950 0001229 263.2020 299.4466 15.91377362  2915
STARLINK-35597          
1 66493U 25263J   25329.83335647 -.01500905  63177-3 -45090-2 0  9995
2 66493  42.9981 226.4876 0001768 265.8974 299.6221 15.91427824  2917
