CCSDS_OMM_VERS = 2.0
CREATION_DATE  = 
ORIGINATOR     = 

OBJECT_NAME    = STARLINK-35648
OBJECT_ID      = 2025-262AC
CENTER_NAME    = EARTH
REF_FRAME      = TEME
TIME_SYSTEM    = UTC
MEAN_ELEMENT_THEORY = SGP/SGP4

EPOCH          = 2025-11-25T20:00:01.999008
MEAN_MOTION    = 15.86471126
ECCENTRICITY   = .0001596
INCLINATION    = 42.9975
RA_OF_ASC_NODE = 171.5478
ARG_OF_PERICENTER = 271.5718
MEAN_ANOMALY   = 2.8170

EPHEMERIS_TYPE = 0
CLASSIFICATION_TYPE = U
NORAD_CAT_ID   = 66482
ELEMENT_SET_NO = 999
REV_AT_EPOCH   = 276
BSTAR          = -.70104E-2
MEAN_MOTION_DOT = -.1601997E-1
MEAN_MOTION_DDOT = 0

CCSDS_OMM_VERS = 2.0
CREATION_DATE  = 
ORIGINATOR     = 

OBJECT_NAME    = STARLINK-35654
OBJECT_ID      = 2025-262AD
CENTER_NAME    = EARTH
REF_FRAME      = TEME
TIME_SYSTEM    = UTC
MEAN_ELEMENT_THEORY = SGP/SGP4

EPOCH          = 2025-11-25T20:00:01.999008
MEAN_MOTION    = 15.86483442
ECCENTRICITY   = .0001645
INCLINATION    = 42.9972
RA_OF_ASC_NODE = 171.5410
ARG_OF_PERICENTER = 271.2436
MEAN_ANOMALY   = 5.6107

EPHEMERIS_TYPE = 0
CLASSIFICATION_TYPE = U
NORAD_CAT_ID   = 66483
ELEMENT_SET_NO = 999
REV_AT_EPOCH   = 292
BSTAR          = -.70962E-2
MEAN_MOTION_DOT = -.162001E-1
MEAN_MOTION_DDOT = 0

CCSDS_OMM_VERS = 2.0
CREATION_DATE  = 
ORIGINATOR     = 

OBJECT_NAME    = STARLINK-35371
OBJECT_ID      = 2025-262AE
CENTER_NAME    = EARTH
REF_FRAME      = TEME
TIME_SYSTEM    = UTC
MEAN_ELEMENT_THEORY = SGP/SGP4

EPOCH          = 2025-11-25T20:00:01.999008
MEAN_MOTION    = 15.86486960
ECCENTRICITY   = .0001734
INCLINATION    = 42.9975
RA_OF_ASC_NODE = 171.5346
ARG_OF_PERICENTER = 269.5891
MEAN_ANOMALY   = 9.9160

EPHEMERIS_TYPE = 0
CLASSIFICATION_TYPE = U
NORAD_CAT_ID   = 66484
ELEMENT_SET_NO = 999
REV_AT_EPOCH   = 292
BSTAR          = -.71847E-2
MEAN_MOTION_DOT = -.1637924E-1
MEAN_MOTION_DDOT = 0

CCSDS_OMM_VERS = 2.0
CREATION_DATE  = 
ORIGINATOR     = 

OBJECT_NAME    = STARLINK-34774
OBJECT_ID      = 2025-263A
CENTER_NAME    = EARTH
REF_FRAME      = TEME
TIME_SYSTEM    = UTC
MEAN_ELEMENT_THEORY = SGP/SGP4

EPOCH          = 2025-11-25T20:00:01.999008
MEAN_MOTION    = 15.91054481
ECCENTRICITY   = .0001667
INCLINATION    = 42.9982
RA_OF_ASC_NODE = 226.5530
ARG_OF_PERICENTER = 268.5640
MEAN_ANOMALY   = 271.2861

EPHEMERIS_TYPE = 0
CLASSIFICATION_TYPE = U
NORAD_CAT_ID   = 66485
ELEMENT_SET_NO = 999
REV_AT_EPOCH   = 291
BSTAR          = -.40951E-2
MEAN_MOTION_DOT = -.1178868E-1
MEAN_MOTION_DDOT = 0

CCSDS_OMM_VERS = 2.0
CREATION_DATE  = 
ORIGINATOR     = 

OBJECT_NAME    = STARLINK-34844
OBJECT_ID      = 2025-263B
CENTER_NAME    = EARTH
REF_FRAME      = TEME
TIME_SYSTEM    = UTC
MEAN_ELEMENT_THEORY = SGP/SGP4

EPOCH          = 2025-11-25T20:00:01.999008
MEAN_MOTION    = 15.91068660
ECCENTRICITY   = .0001679
INCLINATION    = 42.9979
RA_OF_ASC_NODE = 226.5408
ARG_OF_PERICENTER = 261.5728
MEAN_ANOMALY   = 282.9609

EPHEMERIS_TYPE = 0
CLASSIFICATION_TYPE = U
NORAD_CAT_ID   = 66486
ELEMENT_SET_NO = 999
REV_AT_EPOCH   = 286
BSTAR          = -.41295E-2
MEAN_MOTION_DOT = -.1188294E-1
MEAN_MOTION_DDOT = 0

CCSDS_OMM_VERS = 2.0
CREATION_DATE  = 
ORIGINATOR     = 

OBJECT_NAME    = STARLINK-34733
OBJECT_ID      = 2025-263C
CENTER_NAME    = EARTH
REF_FRAME      = TEME
TIME_SYSTEM    = UTC
MEAN_ELEMENT_THEORY = SGP/SGP4

EPOCH          = 2025-11-25T08:00:03.000384
MEAN_MOTION    = 15.92407753
ECCENTRICITY   = .00018395
INCLINATION    = 42.9984
RA_OF_ASC_NODE = 229.6402
ARG_OF_PERICENTER = 267.5512
MEAN_ANOMALY   = 291.5340

EPHEMERIS_TYPE = 0
CLASSIFICATION_TYPE = U
NORAD_CAT_ID   = 66487
ELEMENT_SET_NO = 999
REV_AT_EPOCH   = 283
BSTAR          = -.38906257E-2
MEAN_MOTION_DOT = -.1364307E-1
MEAN_MOTION_DDOT = .53539376E-3

CCSDS_OMM_VERS = 2.0
CREATION_DATE  = 
ORIGINATOR     = 

OBJECT_NAME    = STARLINK-35515
OBJECT_ID      = 2025-263D
CENTER_NAME    = EARTH
REF_FRAME      = TEME
TIME_SYSTEM    = UTC
MEAN_ELEMENT_THEORY = SGP/SGP4

EPOCH          = 2025-11-25T20:00:01.999008
MEAN_MOTION    = 15.91137895
ECCENTRICITY   = .0001589
INCLINATION    = 42.9981
RA_OF_ASC_NODE = 226.5269
ARG_OF_PERICENTER = 261.7988
MEAN_ANOMALY   = 288.2475

EPHEMERIS_TYPE = 0
CLASSIFICATION_TYPE = U
NORAD_CAT_ID   = 66488
ELEMENT_SET_NO = 999
REV_AT_EPOCH   = 291
BSTAR          = -.41289E-2
MEAN_MOTION_DOT = -.1191835E-1
MEAN_MOTION_DDOT = 0

CCSDS_OMM_VERS = 2.0
CREATION_DATE  = 
ORIGINATOR     = 

OBJECT_NAME    = STARLINK-35696
OBJECT_ID      = 2025-263E
CENTER_NAME    = EARTH
REF_FRAME      = TEME
TIME_SYSTEM    = UTC
MEAN_ELEMENT_THEORY = SGP/SGP4

EPOCH          = 2025-11-25T20:00:01.999008
MEAN_MOTION    = 15.91193424
ECCENTRICITY   = .0001634
INCLINATION    = 42.9980
RA_OF_ASC_NODE = 226.5203
ARG_OF_PERICENTER = 264.4512
MEAN_ANOMALY   = 288.1796

EPHEMERIS_TYPE = 0
CLASSIFICATION_TYPE = U
NORAD_CAT_ID   = 66489
ELEMENT_SET_NO = 999
REV_AT_EPOCH   = 291
BSTAR          = -.42031E-2
MEAN_MOTION_DOT = -.1383518E-1
MEAN_MOTION_DDOT = .54291E-3

CCSDS_OMM_VERS = 2.0
CREATION_DATE  = 
ORIGINATOR     = 

OBJECT_NAME    = STARLINK-35693
OBJECT_ID      = 2025-263F
CENTER_NAME    = EARTH
REF_FRAME      = TEME
TIME_SYSTEM    = UTC
MEAN_ELEMENT_THEORY = SGP/SGP4

EPOCH          = 2025-11-25T20:00:01.999008
MEAN_MOTION    = 15.91236332
ECCENTRICITY   = .0001745
INCLINATION    = 42.9982
RA_OF_ASC_NODE = 226.5124
ARG_OF_PERICENTER = 262.7073
MEAN_ANOMALY   = 293.0211

EPHEMERIS_TYPE = 0
CLASSIFICATION_TYPE = U
NORAD_CAT_ID   = 66490
ELEMENT_SET_NO = 999
REV_AT_EPOCH   = 291
BSTAR          = -.42139E-2
MEAN_MOTION_DOT = -.1390102E-1
MEAN_MOTION_DDOT = .54787E-3

CCSDS_OMM_VERS = 2.0
CREATION_DATE  = 
ORIGINATOR     = 

OBJECT_NAME    = STARLINK-35663
OBJECT_ID      = 2025-263G
CENTER_NAME    = EARTH
REF_FRAME      = TEME
TIME_SYSTEM    = UTC
MEAN_ELEMENT_THEORY = SGP/SGP4

EPOCH          = 2025-11-25T20:00:01.999008
MEAN_MOTION    = 15.91356021
ECCENTRICITY   = .0001885
INCLINATION    = 42.9981
RA_OF_ASC_NODE = 226.5010
ARG_OF_PERICENTER = 252.2280
MEAN_ANOMALY   = 308.0282

EPHEMERIS_TYPE = 0
CLASSIFICATION_TYPE = U
NORAD_CAT_ID   = 66491
ELEMENT_SET_NO = 999
REV_AT_EPOCH   = 291
BSTAR          = -.44664E-2
MEAN_MOTION_DOT = -.1481474E-1
MEAN_MOTION_DDOT = .61642E-3

CCSDS_OMM_VERS = 2.0
CREATION_DATE  = 
ORIGINATOR     = 

OBJECT_NAME    = STARLINK-35673
OBJECT_ID      = 2025-263H
CENTER_NAME    = EARTH
REF_FRAME      = TEME
TIME_SYSTEM    = UTC
MEAN_ELEMENT_THEORY = SGP/SGP4

EPOCH          = 2025-11-25T20:00:01.999008
MEAN_MOTION    = 15.91377362
ECCENTRICITY   = .0001229
INCLINATION    = 42.9981
RA_OF_ASC_NODE = 226.4950
ARG_OF_PERICENTER = 263.2020
MEAN_ANOMALY   = 299.4466

EPHEMERIS_TYPE = 0
CLASSIFICATION_TYPE = U
NORAD_CAT_ID   = 66492
ELEMENT_SET_NO = 999
REV_AT_EPOCH   = 291
BSTAR          = -.43814E-2
MEAN_MOTION_DOT = -.1455047E-1
MEAN_MOTION_DDOT = .59651E-3

CCSDS_OMM_VERS = 2.0
CREATION_DATE  = 
ORIGINATOR     = 

OBJECT_NAME    = STARLINK-35597
OBJECT_ID      = 2025-263J
CENTER_NAME    = EARTH
REF_FRAME      = TEME
TIME_SYSTEM    = UTC
MEAN_ELEMENT_THEORY = SGP/SGP4

EPOCH          = 2025-11-25T20:00:01.999008
MEAN_MOTION    = 15.91427824
ECCENTRICITY   = .0001768
INCLINATION    = 42.9981
RA_OF_ASC_NODE = 226.4876
ARG_OF_PERICENTER = 265.8974
MEAN_ANOMALY   = 299.6221

EPHEMERIS_TYPE = 0
CLASSIFICATION_TYPE = U
NORAD_CAT_ID   = 66493
ELEMENT_SET_NO = 999
REV_AT_EPOCH   = 291
BSTAR          = -.4509E-2
MEAN_MOTION_DOT = -.1500905E-1
MEAN_MOTION_DDOT = .63177E-3

